[
  {
    "name": "SKYNET 4C",
    "tle1": "1 20776U 90079A   24260.99077167  .00000124  00000+0  00000+0 0  9992",
    "tle2": "2 20776  13.5464 354.1522 0003588 193.5870 198.6982  1.00272123124497"
  }
]
